[{"OBJECT_NAME":"OBJECT J","OBJECT_ID":"2025-155J","EPOCH":"2026-03-09T22:09:22.347648","MEAN_MOTION":15.2758258,"ECCENTRICITY":0.00088188,"INCLINATION":97.4475,"RA_OF_ASC_NODE":37.3123,"ARG_OF_PERICENTER":150.071,"MEAN_ANOMALY":210.1035,"EPHEMERIS_TYPE":0,"CLASSIFICATION_TYPE":"U","NORAD_CAT_ID":64884,"ELEMENT_SET_NO":999,"REV_AT_EPOCH":6559,"BSTAR":0.00051444498,"MEAN_MOTION_DOT":0.00013827,"MEAN_MOTION_DDOT":0},{"OBJECT_NAME":"STARLINK-36427","OBJECT_ID":"2026-002AE","EPOCH":"2026-03-08T17:52:19.944192","MEAN_MOTION":15.2758496,"ECCENTRICITY":4.265e-5,"INCLINATION":42.9939,"RA_OF_ASC_NODE":330.6507,"ARG_OF_PERICENTER":294.3069,"MEAN_ANOMALY":65.7738,"EPHEMERIS_TYPE":0,"CLASSIFICATION_TYPE":"U","NORAD_CAT_ID":67333,"ELEMENT_SET_NO":999,"REV_AT_EPOCH":1099,"BSTAR":0.0012747018,"MEAN_MOTION_DOT":0.00034987,"MEAN_MOTION_DDOT":0}]
